{"fetched_at":"2026-03-30T06:02:59Z","count":15439,"tles":[{"name":"STARLINK-31581","line1":"1 59474U 24068V   26087.84012995  .00001423  00000+0  61212-4 0  9995","line2":"2 59474  43.0028 279.2487 0001024 278.0001  82.0735 15.27588212111539","category":"Starlink"}]}